[{"OBJECT_NAME":"ORBCOMM FM105","OBJECT_ID":"2015-081C","EPOCH":"2026-03-05T07:37:54.170976","MEAN_MOTION":14.45489616,"ECCENTRICITY":0.0001206,"INCLINATION":47.0011,"RA_OF_ASC_NODE":72.9442,"ARG_OF_PERICENTER":18.2067,"MEAN_ANOMALY":341.8856,"EPHEMERIS_TYPE":0,"CLASSIFICATION_TYPE":"U","NORAD_CAT_ID":41181,"ELEMENT_SET_NO":999,"REV_AT_EPOCH":53852,"BSTAR":0.00015452,"MEAN_MOTION_DOT":3.92e-6,"MEAN_MOTION_DDOT":0},{"OBJECT_NAME":"ORBCOMM FM110","OBJECT_ID":"2015-081D","EPOCH":"2026-03-05T13:09:14.867136","MEAN_MOTION":14.58726599,"ECCENTRICITY":0.00035,"INCLINATION":47.0014,"RA_OF_ASC_NODE":131.4233,"ARG_OF_PERICENTER":302.6378,"MEAN_ANOMALY":57.417,"EPHEMERIS_TYPE":0,"CLASSIFICATION_TYPE":"U","NORAD_CAT_ID":41182,"ELEMENT_SET_NO":999,"REV_AT_EPOCH":54249,"BSTAR":0.00032718,"MEAN_MOTION_DOT":1.371e-5,"MEAN_MOTION_DDOT":0},{"OBJECT_NAME":"ORBCOMM FM118","OBJECT_ID":"2015-081E","EPOCH":"2026-03-05T15:37:40.538496","MEAN_MOTION":14.58722906,"ECCENTRICITY":0.0003921,"INCLINATION":47.0037,"RA_OF_ASC_NODE":131.2505,"ARG_OF_PERICENTER":272.4548,"MEAN_ANOMALY":87.5889,"EPHEMERIS_TYPE":0,"CLASSIFICATION_TYPE":"U","NORAD_CAT_ID":41183,"ELEMENT_SET_NO":999,"REV_AT_EPOCH":54261,"BSTAR":0.00032139,"MEAN_MOTION_DOT":1.344e-5,"MEAN_MOTION_DDOT":0},{"OBJECT_NAME":"ORBCOMM FM112","OBJECT_ID":"2015-081F","EPOCH":"2026-03-05T07:28:47.597664","MEAN_MOTION":14.58721068,"ECCENTRICITY":9.83e-5,"INCLINATION":46.9998,"RA_OF_ASC_NODE":41.3561,"ARG_OF_PERICENTER":62.9653,"MEAN_ANOMALY":297.1333,"EPHEMERIS_TYPE":0,"CLASSIFICATION_TYPE":"U","NORAD_CAT_ID":41184,"ELEMENT_SET_NO":999,"REV_AT_EPOCH":54378,"BSTAR":0.00025772,"MEAN_MOTION_DOT":1.044e-5,"MEAN_MOTION_DDOT":0},{"OBJECT_NAME":"ORBCOMM FM113","OBJECT_ID":"2015-081G","EPOCH":"2026-03-05T15:09:07.934112","MEAN_MOTION":14.58722995,"ECCENTRICITY":5.67e-5,"INCLINATION":47.0015,"RA_OF_ASC_NODE":40.2122,"ARG_OF_PERICENTER":78.0047,"MEAN_ANOMALY":282.0903,"EPHEMERIS_TYPE":0,"CLASSIFICATION_TYPE":"U","NORAD_CAT_ID":41185,"ELEMENT_SET_NO":999,"REV_AT_EPOCH":54381,"BSTAR":0.00025616,"MEAN_MOTION_DOT":1.037e-5,"MEAN_MOTION_DDOT":0},{"OBJECT_NAME":"ORBCOMM FM115","OBJECT_ID":"2015-081H","EPOCH":"2026-03-05T18:52:59.329056","MEAN_MOTION":14.63111492,"ECCENTRICITY":0.0001271,"INCLINATION":46.9971,"RA_OF_ASC_NODE":234.823,"ARG_OF_PERICENTER":212.9546,"MEAN_ANOMALY":147.1263,"EPHEMERIS_TYPE":0,"CLASSIFICATION_TYPE":"U","NORAD_CAT_ID":41186,"ELEMENT_SET_NO":999,"REV_AT_EPOCH":54607,"BSTAR":0.00026085,"MEAN_MOTION_DOT":1.177e-5,"MEAN_MOTION_DDOT":0},{"OBJECT_NAME":"ORBCOMM FM108","OBJECT_ID":"2015-081J","EPOCH":"2026-03-05T15:53:57.716448","MEAN_MOTION":14.58735945,"ECCENTRICITY":0.000217,"INCLINATION":47.0057,"RA_OF_ASC_NODE":311.6058,"ARG_OF_PERICENTER":71.9746,"MEAN_ANOMALY":288.1376,"EPHEMERIS_TYPE":0,"CLASSIFICATION_TYPE":"U","NORAD_CAT_ID":41187,"ELEMENT_SET_NO":999,"REV_AT_EPOCH":54496,"BSTAR":0.00030782,"MEAN_MOTION_DOT":1.28e-5,"MEAN_MOTION_DDOT":0},{"OBJECT_NAME":"ORBCOMM FM117","OBJECT_ID":"2015-081K","EPOCH":"2026-03-05T01:55:17.222880","MEAN_MOTION":14.58725522,"ECCENTRICITY":0.00025137,"INCLINATION":47.002,"RA_OF_ASC_NODE":313.0271,"ARG_OF_PERICENTER":78.725,"MEAN_ANOMALY":281.3918,"EPHEMERIS_TYPE":0,"CLASSIFICATION_TYPE":"U","NORAD_CAT_ID":41188,"ELEMENT_SET_NO":999,"REV_AT_EPOCH":54492,"BSTAR":0.00027532432,"MEAN_MOTION_DOT":1.127e-5,"MEAN_MOTION_DDOT":0},{"OBJECT_NAME":"ORBCOMM FM116","OBJECT_ID":"2015-081L","EPOCH":"2026-03-05T08:02:08.561184","MEAN_MOTION":14.58716965,"ECCENTRICITY":0.0002628,"INCLINATION":47.003,"RA_OF_ASC_NODE":41.6041,"ARG_OF_PERICENTER":297.8655,"MEAN_ANOMALY":62.1965,"EPHEMERIS_TYPE":0,"CLASSIFICATION_TYPE":"U","NORAD_CAT_ID":41189,"ELEMENT_SET_NO":999,"REV_AT_EPOCH":54377,"BSTAR":0.00029333,"MEAN_MOTION_DOT":1.211e-5,"MEAN_MOTION_DDOT":0}]
