ORBCOMM FM105           
1 41181U 15081C   26064.31798809  .00000392  00000+0  15452-3 0  9996
2 41181  47.0011  72.9442 0001206  18.2067 341.8856 14.45489616538527
ORBCOMM FM110           
1 41182U 15081D   26064.54808874  .00001371  00000+0  32718-3 0  9998
2 41182  47.0014 131.4233 0003500 302.6378  57.4170 14.58726599542492
ORBCOMM FM118           
1 41183U 15081E   26064.65116364  .00001344  00000+0  32139-3 0  9994
2 41183  47.0037 131.2505 0003921 272.4548  87.5889 14.58722906542611
ORBCOMM FM112           
1 41184U 15081F   26064.31166201  .00001044  00000+0  25772-3 0  9995
2 41184  46.9998  41.3561 0000983  62.9653 297.1333 14.58721068543783
ORBCOMM FM113           
1 41185U 15081G   26064.63134183  .00001037  00000+0  25616-3 0  9994
2 41185  47.0015  40.2122 0000567  78.0047 282.0903 14.58722995543810
ORBCOMM FM115           
1 41186U 15081H   26064.78679779  .00001177  00000+0  26085-3 0  9992
2 41186  46.9971 234.8230 0001271 212.9546 147.1263 14.63111492546078
ORBCOMM FM108           
1 41187U 15081J   26064.66247357  .00001280  00000+0  30782-3 0  9997
2 41187  47.0057 311.6058 0002170  71.9746 288.1376 14.58735945544968
ORBCOMM FM117           
1 41188U 15081K   26064.08006045  .00001127  00000+0  27532-3 0  9990
2 41188  47.0020 313.0271 0002513  78.7250 281.3918 14.58725522544921
ORBCOMM FM116           
1 41189U 15081L   26064.33482131  .00001211  00000+0  29333-3 0  9998
2 41189  47.0030  41.6041 0002628 297.8655  62.1965 14.58716965543772
